{
    "links": {
        "self": "http://www.neowsapp.com/rest/v1/neo/3986748?api_key=iIulBulltgU6a56xZRHN4H3l9WmuAYTsLGpBGhQ2"
    },
    "id": "3986748",
    "neo_reference_id": "3986748",
    "name": "(2020 BB1)",
    "designation": "2020 BB1",
    "nasa_jpl_url": "http://ssd.jpl.nasa.gov/sbdb.cgi?sstr=3986748",
    "absolute_magnitude_h": 28.005,
    "estimated_diameter": {
        "kilometers": {
            "estimated_diameter_min": 0.0066612384,
            "estimated_diameter_max": 0.0148949819
        },
        "meters": {
            "estimated_diameter_min": 6.6612383946,
            "estimated_diameter_max": 14.8949818646
        },
        "miles": {
            "estimated_diameter_min": 0.0041391004,
            "estimated_diameter_max": 0.0092553098
        },
        "feet": {
            "estimated_diameter_min": 21.8544573744,
            "estimated_diameter_max": 48.8680523005
        }
    },
    "is_potentially_hazardous_asteroid": false,
    "close_approach_data": [
        {
            "close_approach_date": "1941-04-17",
            "close_approach_date_full": "1941-Apr-17 13:29",
            "epoch_date_close_approach": -905941860000,
            "relative_velocity": {
                "kilometers_per_second": "16.7759391008",
                "kilometers_per_hour": "60393.3807628685",
                "miles_per_hour": "37526.0981745724"
            },
            "miss_distance": {
                "astronomical": "0.0723650422",
                "lunar": "28.1500014158",
                "kilometers": "10825656.175580114",
                "miles": "6726750.8239250132"
            },
            "orbiting_body": "Mars"
        },
        {
            "close_approach_date": "2020-01-23",
            "close_approach_date_full": "2020-Jan-23 08:39",
            "epoch_date_close_approach": 1579768740000,
            "relative_velocity": {
                "kilometers_per_second": "11.3603263295",
                "kilometers_per_hour": "40897.1747861536",
                "miles_per_hour": "25411.9139664297"
            },
            "miss_distance": {
                "astronomical": "0.0065899739",
                "lunar": "2.5634998471",
                "kilometers": "985846.058795593",
                "miles": "612576.3353934634"
            },
            "orbiting_body": "Earth"
        },
        {
            "close_approach_date": "2020-01-23",
            "close_approach_date_full": "2020-Jan-23 15:59",
            "epoch_date_close_approach": 1579795140000,
            "relative_velocity": {
                "kilometers_per_second": "11.5309574952",
                "kilometers_per_hour": "41511.4469828312",
                "miles_per_hour": "25793.598821082"
            },
            "miss_distance": {
                "astronomical": "0.006770711",
                "lunar": "2.633806579",
                "kilometers": "1012883.94398557",
                "miles": "629376.898198066"
            },
            "orbiting_body": "Moon"
        },
        {
            "close_approach_date": "2131-05-27",
            "close_approach_date_full": "2131-May-27 07:42",
            "epoch_date_close_approach": 5093307720000,
            "relative_velocity": {
                "kilometers_per_second": "20.3313637675",
                "kilometers_per_hour": "73192.9095630227",
                "miles_per_hour": "45479.2276115348"
            },
            "miss_distance": {
                "astronomical": "0.315151105",
                "lunar": "122.593779845",
                "kilometers": "47145934.03614635",
                "miles": "29295124.97706563"
            },
            "orbiting_body": "Earth"
        }
    ],
    "orbital_data": {
        "orbit_id": "5",
        "orbit_determination_date": "2020-03-01 05:06:42",
        "first_observation_date": "2020-01-19",
        "last_observation_date": "2020-01-22",
        "data_arc_in_days": 3,
        "observations_used": 30,
        "orbit_uncertainty": "7",
        "minimum_orbit_intersection": ".00345651",
        "jupiter_tisserand_invariant": "3.820",
        "epoch_osculation": "2459000.5",
        "eccentricity": ".5252115747839481",
        "semi_major_axis": "1.854607227934586",
        "inclination": "3.409380683219006",
        "ascending_node_longitude": "306.5532289386831",
        "orbital_period": "922.5211865094262",
        "perihelion_distance": ".8805460451453695",
        "perihelion_argument": "222.6227259927696",
        "aphelion_distance": "2.828668410723802",
        "perihelion_time": "2458905.869144693954",
        "mean_anomaly": "36.92826615622479",
        "mean_motion": ".3902349401449997",
        "equinox": "J2000",
        "orbit_class": {
            "orbit_class_type": "APO",
            "orbit_class_description": "Near-Earth asteroid orbits which cross the Earth’s orbit similar to that of 1862 Apollo",
            "orbit_class_range": "a (semi-major axis) > 1.0 AU; q (perihelion) < 1.017 AU"
        }
    },
    "is_sentry_object": false
}